device,model,battery,charging,lat,lon,accuracy,source,place,place_type,locality,address,updated
Nat iPhone12mini,iPhone 12 mini,80,NotCharging,18.464717,99.05675,5,GPS,,,Mueang Lamphun District,"Mueang Lamphun District, Lamphun 51000",2026-02-27 08:04:17
Nat iPhone12mini,iPhone 12 mini,80,NotCharging,18.456181,99.057669,14,GPS,,,Mueang Lamphun District,"Mueang Lamphun District, Lamphun 51000",2026-02-27 08:09:47
Nat iPhone12mini,iPhone 12 mini,78,NotCharging,18.456107,99.087873,15,GPS,,,Mae Tha District,"Mae Tha District, Lamphun 51140",2026-02-27 08:14:32
Nat iPhone12mini,iPhone 12 mini,78,NotCharging,18.456107,99.087873,15,GPS,,,Mae Tha District,"Mae Tha District, Lamphun 51140",2026-02-27 08:14:32
Nat iPhone12mini,iPhone 12 mini,77,NotCharging,18.461019,99.137354,14,GPS,,,Mae Tha District,"Mae Tha District, Lamphun 51140",2026-02-27 08:18:36
Nat iPhone12mini,iPhone 12 mini,69,NotCharging,18.392756,99.265662,51,GPS,,,Hang Chat District,"Hang Chat District, Lampang 52190",2026-02-27 09:01:45
Nat iPhone12mini,iPhone 12 mini,67,NotCharging,18.364852,99.287066,23,GPS,,,Hang Chat District,"Hang Chat District, Lampang 52190",2026-02-27 09:07:09
Nat iPhone12mini,iPhone 12 mini,67,NotCharging,18.37956,99.305078,9,GPS,,,Hang Chat District,"Hang Chat District, Lampang 52190",2026-02-27 09:11:23
Nat iPhone12mini,iPhone 12 mini,65,NotCharging,18.348319,99.35155,328,unknown,,,Hang Chat District,"O Bo Cho. Lampang 3033 Road, Hang Chat, Hang Chat District, Lampang 52190",2026-02-27 09:17:35
Nat iPhone12mini,iPhone 12 mini,64,NotCharging,18.312283,99.413179,6,GPS,,,Mueang Lampang District,"Mueang Lampang District, Lampang 52100",2026-02-27 09:22:15
Nat iPhone12mini,iPhone 12 mini,63,NotCharging,18.281088,99.469882,8,GPS,,,Mueang Lampang District,"107 Rotfai Road, Sop Tui, Mueang Lampang District, Lampang 52100",2026-02-27 09:27:25
Nat iPhone12mini,iPhone 12 mini,62,NotCharging,18.275846,99.47753,5,GPS,,,Mueang Lampang District,"Mueang Lampang District, Lampang 52100",2026-02-27 09:32:24
Nat iPhone12mini,iPhone 12 mini,61,NotCharging,18.223882,99.515192,10,GPS,,,Mueang Lampang District,"Mueang Lampang District, Lampang 52000",2026-02-27 09:37:48
Nat iPhone12mini,iPhone 12 mini,59,NotCharging,18.202323,99.560287,494,unknown,,,Mae Tha District,"Mae Tha District, Lampang 52150",2026-02-27 09:43:23
Nat iPhone12mini,iPhone 12 mini,58,NotCharging,18.240787,99.596923,5,GPS,,,Mueang Lampang District,"Mueang Lampang District, Lampang 52000",2026-02-27 09:48:13
Nat iPhone12mini,iPhone 12 mini,57,NotCharging,18.256232,99.655373,14,GPS,,,Mae Mo District,"84 Moo 5, Mae Mo, Mae Mo District, Lampang 52220",2026-02-27 09:53:39
Nat iPhone12mini,iPhone 12 mini,55,NotCharging,18.264667,99.709782,5,GPS,,,Mae Mo District,"62 Soi Pracha Rat, Mae Mo, Mae Mo District, Lampang 52220",2026-02-27 09:58:27
Nat iPhone12mini,iPhone 12 mini,55,NotCharging,18.264667,99.709782,5,GPS,,,Mae Mo District,"62 Soi Pracha Rat, Mae Mo, Mae Mo District, Lampang 52220",2026-02-27 09:58:27
Nat iPhone12mini,iPhone 12 mini,54,NotCharging,18.277847,99.801018,8,GPS,,,Mae Mo District,"Mae Mo District, Lampang 52220",2026-02-27 10:06:25
Nat iPhone12mini,iPhone 12 mini,52,NotCharging,18.297822,99.86354,9,GPS,,,Mae Mo District,"Mae Mo District, Lampang 52220",2026-02-27 10:14:25
Nat iPhone12mini,iPhone 12 mini,52,NotCharging,18.297822,99.86354,9,GPS,,,Mae Mo District,"Mae Mo District, Lampang 52220",2026-02-27 10:14:25
Nat iPhone12mini,iPhone 12 mini,52,NotCharging,18.297822,99.86354,9,GPS,,,Mae Mo District,"Mae Mo District, Lampang 52220",2026-02-27 10:14:25
Nat iPhone12mini,iPhone 12 mini,0,Unknown,18.297822,99.86354,9,GPS,,,Mae Mo District,"Mae Mo District, Lampang 52220",2026-02-27 10:14:25
Nat iPhone12mini,iPhone 12 mini,49,NotCharging,18.211666,99.871989,5,GPS,,,Long District,"76 Rural Highway 4003, Ban Pin, Long District, Phrae 54150",2026-02-27 10:29:32
Nat iPhone12mini,iPhone 12 mini,48,NotCharging,18.194947,99.870168,26,GPS,,,Long District,"Long District, Phrae 54150",2026-02-27 10:32:30
Nat iPhone12mini,iPhone 12 mini,48,NotCharging,18.194947,99.870168,26,GPS,,,Long District,"Long District, Phrae 54150",2026-02-27 10:32:30
Nat iPhone12mini,iPhone 12 mini,0,Unknown,18.194947,99.870168,26,GPS,,,Long District,"Long District, Phrae 54150",2026-02-27 10:32:30
Nat iPhone12mini,iPhone 12 mini,46,NotCharging,18.096358,99.866883,2,GPS,,,Long District,"203 Thetsaban 2 Road, Ban Pin, Long District, Phrae 54150",2026-02-27 10:49:41
Nat iPhone12mini,iPhone 12 mini,45,NotCharging,18.096305,99.866846,9,GPS,,,Long District,"203 Thetsaban 2 Road, Ban Pin, Long District, Phrae 54150",2026-02-27 10:55:13
Nat iPhone12mini,iPhone 12 mini,44,NotCharging,18.080372,99.879712,16,GPS,,,Long District,"Long District, Phrae 54150",2026-02-27 10:59:32
Nat iPhone12mini,iPhone 12 mini,44,NotCharging,18.080372,99.879712,16,GPS,,,Long District,"Long District, Phrae 54150",2026-02-27 10:59:32
Nat iPhone12mini,iPhone 12 mini,42,NotCharging,18.040347,99.916938,60,GPS,,,Long District,"Long District, Phrae 54150",2026-02-27 11:09:52
Nat iPhone12mini,iPhone 12 mini,41,NotCharging,18.032004,99.922519,36,GPS,,,Long District,"Long District, Phrae 54150",2026-02-27 11:11:34
Nat iPhone12mini,iPhone 12 mini,41,NotCharging,18.032004,99.922519,36,GPS,,,Long District,"Long District, Phrae 54150",2026-02-27 11:11:34
Nat iPhone12mini,iPhone 12 mini,39,NotCharging,18.032004,99.922519,36,GPS,,,Long District,"Long District, Phrae 54150",2026-02-27 11:11:34
Nat iPhone12mini,iPhone 12 mini,38,NotCharging,17.97274,100.052057,14,GPS,,,Den Chai District,"Den Chai District, Phrae 54110",2026-02-27 11:31:00
Nat iPhone12mini,iPhone 12 mini,36,NotCharging,17.92115,100.062211,10,GPS,,,Den Chai District,"Den Chai District, Phrae 54110",2026-02-27 11:36:34
Nat iPhone12mini,iPhone 12 mini,35,NotCharging,17.881632,100.040743,6,GPS,,,Den Chai District,"Den Chai District, Phrae 54110",2026-02-27 11:41:39
Nat iPhone12mini,iPhone 12 mini,34,NotCharging,17.839016,100.046134,14,GPS,,,Mueang Uttaradit District,"Mueang Uttaradit District, Uttaradit 53000",2026-02-27 11:47:01
Nat iPhone12mini,iPhone 12 mini,33,NotCharging,17.808954,100.066603,5,GPS,,,Mueang Uttaradit District,"Mueang Uttaradit District, Uttaradit 53000",2026-02-27 11:51:54
Nat iPhone12mini,iPhone 12 mini,32,NotCharging,17.77201,100.108,5,GPS,,,Mueang Uttaradit District,"169 Ro Pho Cho. Uttaradit 4013 Road, Ban Dan Na Kham, Mueang Uttaradit District, Uttaradit 53000",2026-02-27 11:57:12
Nat iPhone12mini,iPhone 12 mini,31,NotCharging,17.723428,100.126752,14,GPS,,,Mueang Uttaradit District,"33â€“99 Thanon Phatthanakan Soi 13, Ban Dan Na Kham, Mueang Uttaradit District, Uttaradit 53000",2026-02-27 12:02:22
Nat iPhone12mini,iPhone 12 mini,30,NotCharging,17.652857,100.122463,5,GPS,,,Mueang Uttaradit District,"Pracha Ruam Chai Road, Tha Sao, Mueang Uttaradit District, Uttaradit 53000",2026-02-27 12:07:28
Nat iPhone12mini,iPhone 12 mini,29,NotCharging,17.639648,100.10107,8,Wifi,,,Mueang Uttaradit District,"Sila At, Tha It, Mueang Uttaradit District, Uttaradit 53000",2026-02-27 12:12:16
Nat iPhone12mini,iPhone 12 mini,28,NotCharging,17.620929,100.097137,14,GPS,,,Mueang Uttaradit District,"1/47 Boromma At Road, Tha It, Mueang Uttaradit District, Uttaradit 53000",2026-02-27 12:17:39
Nat iPhone12mini,iPhone 12 mini,27,NotCharging,17.599924,100.093404,530,unknown,,,Mueang Uttaradit District,"Ban Ko, Mueang Uttaradit District, Uttaradit",2026-02-27 12:23:03
Nat iPhone12mini,iPhone 12 mini,27,NotCharging,17.594402,100.093817,6,GPS,,,Mueang Uttaradit District,"242 Ban Nong Khan Road, Ban Ko, Mueang Uttaradit District, Uttaradit 53000",2026-02-27 12:23:17
Nat iPhone12mini,iPhone 12 mini,27,NotCharging,17.594402,100.093817,6,GPS,,,Mueang Uttaradit District,"242 Ban Nong Khan Road, Ban Ko, Mueang Uttaradit District, Uttaradit 53000",2026-02-27 12:23:17
Nat iPhone12mini,iPhone 12 mini,0,Unknown,17.594402,100.093817,6,GPS,,,Mueang Uttaradit District,"Ban Nong Khan Road, Ban Ko, Mueang Uttaradit District, Uttaradit 53000",2026-02-27 12:23:17
Nat iPhone12mini,iPhone 12 mini,0,Unknown,17.594402,100.093817,6,GPS,,,Mueang Uttaradit District,"Ban Nong Khan Road, Ban Ko, Mueang Uttaradit District, Uttaradit 53000",2026-02-27 12:23:17
Nat iPhone12mini,iPhone 12 mini,0,Unknown,17.594402,100.093817,6,GPS,,,Mueang Uttaradit District,"Ban Nong Khan Road, Ban Ko, Mueang Uttaradit District, Uttaradit 53000",2026-02-27 12:23:17
Nat iPhone12mini,iPhone 12 mini,0,Unknown,17.594402,100.093817,6,GPS,,,Mueang Uttaradit District,"Ban Nong Khan Road, Ban Ko, Mueang Uttaradit District, Uttaradit 53000",2026-02-27 12:23:17
Nat iPhone12mini,iPhone 12 mini,0,Unknown,17.594402,100.093817,6,GPS,,,Mueang Uttaradit District,"Ban Nong Khan Road, Ban Ko, Mueang Uttaradit District, Uttaradit 53000",2026-02-27 12:23:17
Nat iPhone12mini,iPhone 12 mini,0,Unknown,17.594402,100.093817,6,GPS,,,Mueang Uttaradit District,"Ban Nong Khan Road, Ban Ko, Mueang Uttaradit District, Uttaradit 53000",2026-02-27 12:23:17
Nat iPhone12mini,iPhone 12 mini,0,Unknown,17.594402,100.093817,6,GPS,,,Mueang Uttaradit District,"Ban Nong Khan Road, Ban Ko, Mueang Uttaradit District, Uttaradit 53000",2026-02-27 12:23:17
Nat iPhone12mini,iPhone 12 mini,0,Unknown,17.594402,100.093817,6,GPS,,,Mueang Uttaradit District,"Ban Nong Khan Road, Ban Ko, Mueang Uttaradit District, Uttaradit 53000",2026-02-27 12:23:17
Nat iPhone12mini,iPhone 12 mini,0,Unknown,17.594402,100.093817,6,GPS,,,Mueang Uttaradit District,"Ban Nong Khan Road, Ban Ko, Mueang Uttaradit District, Uttaradit 53000",2026-02-27 12:23:17
Nat iPhone12mini,iPhone 12 mini,0,Unknown,17.594402,100.093817,6,GPS,,,Mueang Uttaradit District,"Ban Nong Khan Road, Ban Ko, Mueang Uttaradit District, Uttaradit 53000",2026-02-27 12:23:17
Nat iPhone12mini,iPhone 12 mini,0,Unknown,17.594402,100.093817,6,GPS,,,Mueang Uttaradit District,"Ban Nong Khan Road, Ban Ko, Mueang Uttaradit District, Uttaradit 53000",2026-02-27 12:23:17
Nat iPhone12mini,iPhone 12 mini,0,Unknown,17.594402,100.093817,6,GPS,,,Mueang Uttaradit District,"Ban Nong Khan Road, Ban Ko, Mueang Uttaradit District, Uttaradit 53000",2026-02-27 12:23:17
Nat iPhone12mini,iPhone 12 mini,0,Unknown,17.594402,100.093817,6,GPS,,,Mueang Uttaradit District,"Ban Nong Khan Road, Ban Ko, Mueang Uttaradit District, Uttaradit 53000",2026-02-27 12:23:17
Nat iPhone12mini,iPhone 12 mini,0,Unknown,17.594402,100.093817,6,GPS,,,Mueang Uttaradit District,"Ban Nong Khan Road, Ban Ko, Mueang Uttaradit District, Uttaradit 53000",2026-02-27 12:23:17
Nat iPhone12mini,iPhone 12 mini,0,Unknown,17.594402,100.093817,6,GPS,,,Mueang Uttaradit District,"Ban Nong Khan Road, Ban Ko, Mueang Uttaradit District, Uttaradit 53000",2026-02-27 12:23:17
Nat iPhone12mini,iPhone 12 mini,0,Unknown,17.594402,100.093817,6,GPS,,,Mueang Uttaradit District,"Ban Nong Khan Road, Ban Ko, Mueang Uttaradit District, Uttaradit 53000",2026-02-27 12:23:17
Nat iPhone12mini,iPhone 12 mini,0,Unknown,17.594402,100.093817,6,GPS,,,Mueang Uttaradit District,"Ban Nong Khan Road, Ban Ko, Mueang Uttaradit District, Uttaradit 53000",2026-02-27 12:23:17
Nat iPhone12mini,iPhone 12 mini,0,Unknown,17.594402,100.093817,6,GPS,,,Mueang Uttaradit District,"Ban Nong Khan Road, Ban Ko, Mueang Uttaradit District, Uttaradit 53000",2026-02-27 12:23:17
Nat iPhone12mini,iPhone 12 mini,0,Unknown,17.594402,100.093817,6,GPS,,,Mueang Uttaradit District,"Ban Nong Khan Road, Ban Ko, Mueang Uttaradit District, Uttaradit 53000",2026-02-27 12:23:17
Nat iPhone12mini,iPhone 12 mini,0,Unknown,17.594402,100.093817,6,GPS,,,Mueang Uttaradit District,"Ban Nong Khan Road, Ban Ko, Mueang Uttaradit District, Uttaradit 53000",2026-02-27 12:23:17
Nat iPhone12mini,iPhone 12 mini,0,Unknown,17.594402,100.093817,6,GPS,,,Mueang Uttaradit District,"Ban Nong Khan Road, Ban Ko, Mueang Uttaradit District, Uttaradit 53000",2026-02-27 12:23:17
Nat iPhone12mini,iPhone 12 mini,0,Unknown,17.594402,100.093817,6,GPS,,,Mueang Uttaradit District,"Ban Nong Khan Road, Ban Ko, Mueang Uttaradit District, Uttaradit 53000",2026-02-27 12:23:17
Nat iPhone12mini,iPhone 12 mini,0,Unknown,17.594402,100.093817,6,GPS,,,Mueang Uttaradit District,"Ban Nong Khan Road, Ban Ko, Mueang Uttaradit District, Uttaradit 53000",2026-02-27 12:23:17
Nat iPhone12mini,iPhone 12 mini,0,Unknown,17.594402,100.093817,6,GPS,,,Mueang Uttaradit District,"Ban Nong Khan Road, Ban Ko, Mueang Uttaradit District, Uttaradit 53000",2026-02-27 12:23:17
Nat iPhone12mini,iPhone 12 mini,0,Unknown,17.594402,100.093817,6,GPS,,,Mueang Uttaradit District,"Ban Nong Khan Road, Ban Ko, Mueang Uttaradit District, Uttaradit 53000",2026-02-27 12:23:17
Nat iPhone12mini,iPhone 12 mini,0,Unknown,17.594402,100.093817,6,GPS,,,Mueang Uttaradit District,"Ban Nong Khan Road, Ban Ko, Mueang Uttaradit District, Uttaradit 53000",2026-02-27 12:23:17
Nat iPhone12mini,iPhone 12 mini,0,Unknown,17.594402,100.093817,6,GPS,,,Mueang Uttaradit District,"Ban Nong Khan Road, Ban Ko, Mueang Uttaradit District, Uttaradit 53000",2026-02-27 12:23:17
Nat iPhone12mini,iPhone 12 mini,0,Unknown,17.594402,100.093817,6,GPS,,,Mueang Uttaradit District,"Ban Nong Khan Road, Ban Ko, Mueang Uttaradit District, Uttaradit 53000",2026-02-27 12:23:17
Nat iPhone12mini,iPhone 12 mini,0,Unknown,17.594402,100.093817,6,GPS,,,Mueang Uttaradit District,"Ban Nong Khan Road, Ban Ko, Mueang Uttaradit District, Uttaradit 53000",2026-02-27 12:23:17
Nat iPhone12mini,iPhone 12 mini,0,Unknown,17.594402,100.093817,6,GPS,,,Mueang Uttaradit District,"Ban Nong Khan Road, Ban Ko, Mueang Uttaradit District, Uttaradit 53000",2026-02-27 12:23:17
Nat iPhone12mini,iPhone 12 mini,0,Unknown,17.594402,100.093817,6,GPS,,,Mueang Uttaradit District,"Ban Nong Khan Road, Ban Ko, Mueang Uttaradit District, Uttaradit 53000",2026-02-27 12:23:17
Nat iPhone12mini,iPhone 12 mini,0,Unknown,17.594402,100.093817,6,GPS,,,Mueang Uttaradit District,"Ban Nong Khan Road, Ban Ko, Mueang Uttaradit District, Uttaradit 53000",2026-02-27 12:23:17
Nat iPhone12mini,iPhone 12 mini,0,Unknown,17.594402,100.093817,6,GPS,,,Mueang Uttaradit District,"Ban Nong Khan Road, Ban Ko, Mueang Uttaradit District, Uttaradit 53000",2026-02-27 12:23:17
Nat iPhone12mini,iPhone 12 mini,0,Unknown,17.594402,100.093817,6,GPS,,,Mueang Uttaradit District,"Ban Nong Khan Road, Ban Ko, Mueang Uttaradit District, Uttaradit 53000",2026-02-27 12:23:17
Nat iPhone12mini,iPhone 12 mini,0,Unknown,17.594402,100.093817,6,GPS,,,Mueang Uttaradit District,"Ban Nong Khan Road, Ban Ko, Mueang Uttaradit District, Uttaradit 53000",2026-02-27 12:23:17
Nat iPhone12mini,iPhone 12 mini,0,Unknown,17.594402,100.093817,6,GPS,,,Mueang Uttaradit District,"Ban Nong Khan Road, Ban Ko, Mueang Uttaradit District, Uttaradit 53000",2026-02-27 12:23:17
Nat iPhone12mini,iPhone 12 mini,0,Unknown,17.594402,100.093817,6,GPS,,,Mueang Uttaradit District,"Ban Nong Khan Road, Ban Ko, Mueang Uttaradit District, Uttaradit 53000",2026-02-27 12:23:17
Nat iPhone12mini,iPhone 12 mini,0,Unknown,17.594402,100.093817,6,GPS,,,Mueang Uttaradit District,"Ban Nong Khan Road, Ban Ko, Mueang Uttaradit District, Uttaradit 53000",2026-02-27 12:23:17
Nat iPhone12mini,iPhone 12 mini,0,Unknown,17.594402,100.093817,6,GPS,,,Mueang Uttaradit District,"Ban Nong Khan Road, Ban Ko, Mueang Uttaradit District, Uttaradit 53000",2026-02-27 12:23:17
Nat iPhone12mini,iPhone 12 mini,0,Unknown,17.594402,100.093817,6,GPS,,,Mueang Uttaradit District,"Ban Nong Khan Road, Ban Ko, Mueang Uttaradit District, Uttaradit 53000",2026-02-27 12:23:17
Nat iPhone12mini,iPhone 12 mini,0,Unknown,17.594402,100.093817,6,GPS,,,Mueang Uttaradit District,"Ban Nong Khan Road, Ban Ko, Mueang Uttaradit District, Uttaradit 53000",2026-02-27 12:23:17
Nat iPhone12mini,iPhone 12 mini,0,Unknown,17.594402,100.093817,6,GPS,,,Mueang Uttaradit District,"Ban Nong Khan Road, Ban Ko, Mueang Uttaradit District, Uttaradit 53000",2026-02-27 12:23:17
Nat iPhone12mini,iPhone 12 mini,0,Unknown,17.594402,100.093817,6,GPS,,,Mueang Uttaradit District,"Ban Nong Khan Road, Ban Ko, Mueang Uttaradit District, Uttaradit 53000",2026-02-27 12:23:17
Nat iPhone12mini,iPhone 12 mini,0,Unknown,17.594402,100.093817,6,GPS,,,Mueang Uttaradit District,"Ban Nong Khan Road, Ban Ko, Mueang Uttaradit District, Uttaradit 53000",2026-02-27 12:23:17
Nat iPhone12mini,iPhone 12 mini,1,Charging,16.817458,100.25806,60,GPS,,,Mueang Phitsanulok District,"Phibun Songkhram Rajabhat University, Nai Mueang, Mueang Phitsanulok District, Phitsanulok 65000",2026-02-27 16:23:02
Nat iPhone12mini,iPhone 12 mini,1,Charging,16.816864,100.258006,10,GPS,,,Mueang Phitsanulok District,"Pibulsongkram Rajabhat University, Nai Mueang, Mueang Phitsanulok District, Phitsanulok 65000",2026-02-27 16:28:33
Nat iPhone12mini,iPhone 12 mini,1,Charging,16.816866,100.258006,10,unknown,,,Mueang Phitsanulok District,"Pibulsongkram Rajabhat University, Nai Mueang, Mueang Phitsanulok District, Phitsanulok 65000",2026-02-27 16:33:21
Nat iPhone12mini,iPhone 12 mini,1,Charging,16.816868,100.258007,10,unknown,,,Mueang Phitsanulok District,"Pibulsongkram Rajabhat University, Nai Mueang, Mueang Phitsanulok District, Phitsanulok 65000",2026-02-27 16:38:31
Nat iPhone12mini,iPhone 12 mini,4,Charging,16.81687,100.258008,10,unknown,,,Mueang Phitsanulok District,"Pibulsongkram Rajabhat University, Nai Mueang, Mueang Phitsanulok District, Phitsanulok 65000",2026-02-27 16:43:35
Nat iPhone12mini,iPhone 12 mini,11,Charging,16.816871,100.258008,10,unknown,,,Mueang Phitsanulok District,"Pibulsongkram Rajabhat University, Nai Mueang, Mueang Phitsanulok District, Phitsanulok 65000",2026-02-27 16:49:04
Nat iPhone12mini,iPhone 12 mini,15,Charging,16.816907,100.258004,10,GPS,,,Mueang Phitsanulok District,"Pibulsongkram Rajabhat University, Nai Mueang, Mueang Phitsanulok District, Phitsanulok 65000",2026-02-27 16:53:51
Nat iPhone12mini,iPhone 12 mini,20,Charging,16.816907,100.258004,10,unknown,,,Mueang Phitsanulok District,"Pibulsongkram Rajabhat University, Nai Mueang, Mueang Phitsanulok District, Phitsanulok 65000",2026-02-27 16:59:11
Nat iPhone12mini,iPhone 12 mini,23,Charging,16.816919,100.258002,10,unknown,,,Mueang Phitsanulok District,"Pibulsongkram Rajabhat University, Nai Mueang, Mueang Phitsanulok District, Phitsanulok 65000",2026-02-27 17:04:11
Nat iPhone12mini,iPhone 12 mini,27,Charging,16.816934,100.258003,10,unknown,,,Mueang Phitsanulok District,"Pibulsongkram Rajabhat University, Nai Mueang, Mueang Phitsanulok District, Phitsanulok 65000",2026-02-27 17:09:59
Nat iPhone12mini,iPhone 12 mini,31,Charging,16.816936,100.258003,10,unknown,,,Mueang Phitsanulok District,"Pibulsongkram Rajabhat University, Nai Mueang, Mueang Phitsanulok District, Phitsanulok 65000",2026-02-27 17:14:36
Nat iPhone12mini,iPhone 12 mini,34,Charging,16.816945,100.258003,10,unknown,,,Mueang Phitsanulok District,"Pibulsongkram Rajabhat University, Nai Mueang, Mueang Phitsanulok District, Phitsanulok 65000",2026-02-27 17:20:21
Nat iPhone12mini,iPhone 12 mini,37,Charging,16.816947,100.258004,10,unknown,,,Mueang Phitsanulok District,"Pibulsongkram Rajabhat University, Nai Mueang, Mueang Phitsanulok District, Phitsanulok 65000",2026-02-27 17:23:55
Nat iPhone12mini,iPhone 12 mini,40,Charging,16.816956,100.258004,10,unknown,,,Mueang Phitsanulok District,"Pibulsongkram Rajabhat University, 66 Wang Chan Road, Nai Mueang, Mueang Phitsanulok District, Phitsanulok 65000",2026-02-27 17:30:17
Nat iPhone12mini,iPhone 12 mini,42,Charging,16.816946,100.258002,10,GPS,,,Mueang Phitsanulok District,"Pibulsongkram Rajabhat University, Nai Mueang, Mueang Phitsanulok District, Phitsanulok 65000",2026-02-27 17:35:21
Nat iPhone12mini,iPhone 12 mini,43,Charging,16.816941,100.258003,10,GPS,,,Mueang Phitsanulok District,"Pibulsongkram Rajabhat University, Nai Mueang, Mueang Phitsanulok District, Phitsanulok 65000",2026-02-27 17:40:31
Nat iPhone12mini,iPhone 12 mini,45,Charging,16.816943,100.258004,10,unknown,,,Mueang Phitsanulok District,"Pibulsongkram Rajabhat University, Nai Mueang, Mueang Phitsanulok District, Phitsanulok 65000",2026-02-27 17:45:21
Nat iPhone12mini,iPhone 12 mini,45,NotCharging,16.81693,100.258031,15,GPS,,,Mueang Phitsanulok District,"Pibulsongkram Rajabhat University, Nai Mueang, Mueang Phitsanulok District, Phitsanulok 65000",2026-02-27 17:50:55
Nat iPhone12mini,iPhone 12 mini,43,NotCharging,16.817666,100.258349,8,GPS,,,Mueang Phitsanulok District,"66 Wang Chan Road, Nai Mueang, Mueang Phitsanulok District, Phitsanulok 65000",2026-02-27 17:55:38
Nat iPhone12mini,iPhone 12 mini,1,NotCharging,16.818115,100.258121,4,GPS,,,Mueang Phitsanulok District,"66 Wang Chan Road, Nai Mueang, Mueang Phitsanulok District, Phitsanulok 65000",2026-02-27 18:07:27
Nat iPhone12mini,iPhone 12 mini,1,NotCharging,16.817932,100.259533,76,Wifi,,,Mueang Phitsanulok District,"Phuttha Bucha Road, Nai Mueang, Mueang Phitsanulok District, Phitsanulok 65000",2026-02-27 18:12:54
Nat iPhone12mini,iPhone 12 mini,1,NotCharging,16.817928,100.25823,4,GPS,,,Mueang Phitsanulok District,"66 Wang Chan Road, Nai Mueang, Mueang Phitsanulok District, Phitsanulok 65000",2026-02-27 18:17:22
Nat iPhone12mini,iPhone 12 mini,1,NotCharging,16.816055,100.256881,4,GPS,,,Mueang Phitsanulok District,"80/71 Pracha Uthit Road, Nai Mueang, Mueang Phitsanulok District, Phitsanulok 65000",2026-02-27 18:22:35
Nat iPhone12mini,iPhone 12 mini,1,NotCharging,16.813947,100.263612,8,GPS,,,Mueang Phitsanulok District,"30 Chaophraya Road, Nai Mueang, Mueang Phitsanulok District, Phitsanulok 65000",2026-02-27 18:27:44
Nat iPhone12mini,iPhone 12 mini,1,NotCharging,16.813897,100.263608,5,GPS,,,Mueang Phitsanulok District,"30 Chaophraya Road, Nai Mueang, Mueang Phitsanulok District, Phitsanulok 65000",2026-02-27 18:33:01
Nat iPhone12mini,iPhone 12 mini,1,NotCharging,16.813902,100.263594,10,GPS,,,Mueang Phitsanulok District,"30 Chaophraya Road, Nai Mueang, Mueang Phitsanulok District, Phitsanulok 65000",2026-02-27 18:38:02
Nat iPhone12mini,iPhone 12 mini,1,NotCharging,16.813922,100.263578,9,Wifi,,,Mueang Phitsanulok District,"30 Chaophraya Road, Nai Mueang, Mueang Phitsanulok District, Phitsanulok 65000",2026-02-27 18:42:56
Nat iPhone12mini,iPhone 12 mini,1,NotCharging,16.813875,100.263634,5,GPS,,,Mueang Phitsanulok District,"30 Chaophraya Road, Nai Mueang, Mueang Phitsanulok District, Phitsanulok 65000",2026-02-27 18:48:30
Nat iPhone12mini,iPhone 12 mini,1,NotCharging,16.813883,100.263606,7,GPS,,,Mueang Phitsanulok District,"30 Chaophraya Road, Nai Mueang, Mueang Phitsanulok District, Phitsanulok 65000",2026-02-27 18:53:19
Nat iPhone12mini,iPhone 12 mini,1,NotCharging,16.81397,100.263574,9,GPS,,,Mueang Phitsanulok District,"28 Chaophraya Road, Nai Mueang, Mueang Phitsanulok District, Phitsanulok 65000",2026-02-27 18:59:04
Nat iPhone12mini,iPhone 12 mini,1,NotCharging,16.813811,100.263497,9,GPS,,,Mueang Phitsanulok District,"34 Chaophraya Road, Nai Mueang, Mueang Phitsanulok District, Phitsanulok 65000",2026-02-27 19:03:27
Nat iPhone12mini,iPhone 12 mini,1,NotCharging,16.813836,100.263538,10,GPS,,,Mueang Phitsanulok District,"34 Chaophraya Road, Nai Mueang, Mueang Phitsanulok District, Phitsanulok 65000",2026-02-27 19:08:38
Nat iPhone12mini,iPhone 12 mini,1,NotCharging,16.813869,100.263578,10,GPS,,,Mueang Phitsanulok District,"30 Chaophraya Road, Nai Mueang, Mueang Phitsanulok District, Phitsanulok 65000",2026-02-27 19:14:06
Nat iPhone12mini,iPhone 12 mini,1,NotCharging,16.813839,100.263541,5,unknown,,,Mueang Phitsanulok District,"34 Chaophraya Road, Nai Mueang, Mueang Phitsanulok District, Phitsanulok 65000",2026-02-27 19:18:46
Nat iPhone12mini,iPhone 12 mini,1,NotCharging,16.813845,100.263549,10,Wifi,,,Mueang Phitsanulok District,"34 Chaophraya Road, Nai Mueang, Mueang Phitsanulok District, Phitsanulok 65000",2026-02-27 19:24:36
Nat iPhone12mini,iPhone 12 mini,1,NotCharging,16.813222,100.263612,7,GPS,,,Mueang Phitsanulok District,"76 Phaya Lithai Road, Nai Mueang, Mueang Phitsanulok District, Phitsanulok 65000",2026-02-27 19:29:03
Nat iPhone12mini,iPhone 12 mini,1,NotCharging,16.812322,100.261597,4,Wifi,,,Mueang Phitsanulok District,"169/4 Moo 2, Nai Mueang, Mueang Phitsanulok District, Phitsanulok 65000",2026-02-27 19:34:15
Nat iPhone12mini,iPhone 12 mini,1,NotCharging,16.81233,100.261622,4,Wifi,,,Mueang Phitsanulok District,"169/4 Moo 2, Nai Mueang, Mueang Phitsanulok District, Phitsanulok 65000",2026-02-27 19:39:10
Nat iPhone12mini,iPhone 12 mini,1,NotCharging,16.81233,100.261622,4,Wifi,,,Mueang Phitsanulok District,"169/4 Moo 2, Nai Mueang, Mueang Phitsanulok District, Phitsanulok 65000",2026-02-27 19:39:10
Nat iPhone12mini,iPhone 12 mini,1,NotCharging,16.812311,100.261688,26,Wifi,,,Mueang Phitsanulok District,"169/3 Moo 2, Nai Mueang, Mueang Phitsanulok District, Phitsanulok 65000",2026-02-27 19:44:52
Nat iPhone12mini,iPhone 12 mini,1,NotCharging,16.815793,100.257413,28,GPS,,,Mueang Phitsanulok District,"90 Phra Ruang Road, Nai Mueang, Mueang Phitsanulok District, Phitsanulok 65000",2026-02-27 19:49:47
Nat iPhone12mini,iPhone 12 mini,1,NotCharging,16.817779,100.258018,52,GPS,,,Mueang Phitsanulok District,"Nai Mueang, Mueang Phitsanulok District, Phitsanulok",2026-02-27 19:55:09
Nat iPhone12mini,iPhone 12 mini,1,NotCharging,16.817492,100.257992,8,GPS,,,Mueang Phitsanulok District,"Phibun Songkhram Rajabhat University, Nai Mueang, Mueang Phitsanulok District, Phitsanulok 65000",2026-02-27 20:00:18
Nat iPhone12mini,iPhone 12 mini,1,NotCharging,16.817512,100.258,7,Wifi,,,Mueang Phitsanulok District,"Phibun Songkhram Rajabhat University, Nai Mueang, Mueang Phitsanulok District, Phitsanulok 65000",2026-02-27 20:04:43
Nat iPhone12mini,iPhone 12 mini,1,NotCharging,16.817532,100.258017,7,Wifi,,,Mueang Phitsanulok District,"Phibun Songkhram Rajabhat University, Nai Mueang, Mueang Phitsanulok District, Phitsanulok 65000",2026-02-27 20:09:55
Nat iPhone12mini,iPhone 12 mini,1,NotCharging,16.817516,100.25801,9,GPS,,,Mueang Phitsanulok District,"Phibun Songkhram Rajabhat University, Nai Mueang, Mueang Phitsanulok District, Phitsanulok 65000",2026-02-27 20:15:11
Nat iPhone12mini,iPhone 12 mini,1,NotCharging,16.817573,100.25807,8,Wifi,,,Mueang Phitsanulok District,"Phibun Songkhram Rajabhat University, Nai Mueang, Mueang Phitsanulok District, Phitsanulok 65000",2026-02-27 20:20:06
Nat iPhone12mini,iPhone 12 mini,1,NotCharging,16.817629,100.258128,7,Wifi,,,Mueang Phitsanulok District,"Phibun Songkhram Rajabhat University, Nai Mueang, Mueang Phitsanulok District, Phitsanulok 65000",2026-02-27 20:25:23
Nat iPhone12mini,iPhone 12 mini,1,NotCharging,16.817653,100.258153,6,Wifi,,,Mueang Phitsanulok District,"Pibulsongkram Rajabhat University, 66 Wang Chan Road, Nai Mueang, Mueang Phitsanulok District, Phitsanulok 65000",2026-02-27 20:30:26
Nat iPhone12mini,iPhone 12 mini,1,NotCharging,16.81767,100.25818,6,Wifi,,,Mueang Phitsanulok District,"Pibulsongkram Rajabhat University, 66 Wang Chan Road, Nai Mueang, Mueang Phitsanulok District, Phitsanulok 65000",2026-02-27 20:35:33
Nat iPhone12mini,iPhone 12 mini,1,NotCharging,16.817694,100.258205,5,Wifi,,,Mueang Phitsanulok District,"Pibulsongkram Rajabhat University, 66 Wang Chan Road, Nai Mueang, Mueang Phitsanulok District, Phitsanulok 65000",2026-02-27 20:39:23
Nat iPhone12mini,iPhone 12 mini,1,NotCharging,16.817694,100.258205,5,Wifi,,,Mueang Phitsanulok District,"Pibulsongkram Rajabhat University, 66 Wang Chan Road, Nai Mueang, Mueang Phitsanulok District, Phitsanulok 65000",2026-02-27 20:39:23
Nat iPhone12mini,iPhone 12 mini,0,Unknown,16.817694,100.258205,5,Wifi,,,Mueang Phitsanulok District,"Pibulsongkram Rajabhat University, 66 Wang Chan Road, Nai Mueang, Mueang Phitsanulok District, Phitsanulok 65000",2026-02-27 20:39:23
Nat iPhone12mini,iPhone 12 mini,0,Unknown,16.817694,100.258205,5,Wifi,,,Mueang Phitsanulok District,"Pibulsongkram Rajabhat University, 66 Wang Chan Road, Nai Mueang, Mueang Phitsanulok District, Phitsanulok 65000",2026-02-27 20:39:23
Nat iPhone12mini,iPhone 12 mini,0,Unknown,16.817694,100.258205,5,Wifi,,,Mueang Phitsanulok District,"Pibulsongkram Rajabhat University, 66 Wang Chan Road, Nai Mueang, Mueang Phitsanulok District, Phitsanulok 65000",2026-02-27 20:39:23
Nat iPhone12mini,iPhone 12 mini,0,Unknown,16.817694,100.258205,5,Wifi,,,Mueang Phitsanulok District,"Pibulsongkram Rajabhat University, 66 Wang Chan Road, Nai Mueang, Mueang Phitsanulok District, Phitsanulok 65000",2026-02-27 20:39:23
Nat iPhone12mini,iPhone 12 mini,0,Unknown,16.817694,100.258205,5,Wifi,,,Mueang Phitsanulok District,"Pibulsongkram Rajabhat University, 66 Wang Chan Road, Nai Mueang, Mueang Phitsanulok District, Phitsanulok 65000",2026-02-27 20:39:23
Nat iPhone12mini,iPhone 12 mini,0,Unknown,16.817694,100.258205,5,Wifi,,,Mueang Phitsanulok District,"Pibulsongkram Rajabhat University, 66 Wang Chan Road, Nai Mueang, Mueang Phitsanulok District, Phitsanulok 65000",2026-02-27 20:39:23
Nat iPhone12mini,iPhone 12 mini,0,Unknown,16.817694,100.258205,5,Wifi,,,Mueang Phitsanulok District,"Pibulsongkram Rajabhat University, 66 Wang Chan Road, Nai Mueang, Mueang Phitsanulok District, Phitsanulok 65000",2026-02-27 20:39:23
Nat iPhone12mini,iPhone 12 mini,0,Unknown,16.817694,100.258205,5,Wifi,,,Mueang Phitsanulok District,"66 Wang Chan Road, Nai Mueang, Mueang Phitsanulok District, Phitsanulok 65000",2026-02-27 20:39:23
Nat iPhone12mini,iPhone 12 mini,0,Unknown,16.817694,100.258205,5,Wifi,,,Mueang Phitsanulok District,"66 Wang Chan Road, Nai Mueang, Mueang Phitsanulok District, Phitsanulok 65000",2026-02-27 20:39:23
Nat iPhone12mini,iPhone 12 mini,0,Unknown,16.817694,100.258205,5,Wifi,,,Mueang Phitsanulok District,"Wang Chan Road, Nai Mueang, Mueang Phitsanulok District, Phitsanulok 65000",2026-02-27 20:39:23
Nat iPhone12mini,iPhone 12 mini,0,Unknown,16.817694,100.258205,5,Wifi,,,Mueang Phitsanulok District,"66 Wang Chan Road, Nai Mueang, Mueang Phitsanulok District, Phitsanulok 65000",2026-02-27 20:39:23
Nat iPhone12mini,iPhone 12 mini,17,Charging,16.817754,100.258196,14,GPS,,,Mueang Phitsanulok District,"Pibulsongkram Rajabhat University, 66 Wang Chan Road, Nai Mueang, Mueang Phitsanulok District, Phitsanulok 65000",2026-02-27 21:47:23
Nat iPhone12mini,iPhone 12 mini,24,Charging,16.817565,100.25811,10,GPS,,,Mueang Phitsanulok District,"Phibun Songkhram Rajabhat University, Nai Mueang, Mueang Phitsanulok District, Phitsanulok 65000",2026-02-27 21:52:40
Nat iPhone12mini,iPhone 12 mini,30,Charging,16.817717,100.258244,15,Wifi,,,Mueang Phitsanulok District,"Pibulsongkram Rajabhat University, 66 Wang Chan Road, Nai Mueang, Mueang Phitsanulok District, Phitsanulok 65000",2026-02-27 21:57:26
Nat iPhone12mini,iPhone 12 mini,37,Charging,16.817739,100.258252,7,Wifi,,,Mueang Phitsanulok District,"66 Wang Chan Road, Nai Mueang, Mueang Phitsanulok District, Phitsanulok 65000",2026-02-27 22:02:57
Nat iPhone12mini,iPhone 12 mini,42,Charging,16.817741,100.258263,6,Wifi,,,Mueang Phitsanulok District,"66 Wang Chan Road, Nai Mueang, Mueang Phitsanulok District, Phitsanulok 65000",2026-02-27 22:07:33
Nat iPhone12mini,iPhone 12 mini,48,Charging,16.817743,100.25827,5,Wifi,,,Mueang Phitsanulok District,"66 Wang Chan Road, Nai Mueang, Mueang Phitsanulok District, Phitsanulok 65000",2026-02-27 22:12:31
Nat iPhone12mini,iPhone 12 mini,53,Charging,16.817744,100.258274,5,Wifi,,,Mueang Phitsanulok District,"66 Wang Chan Road, Nai Mueang, Mueang Phitsanulok District, Phitsanulok 65000",2026-02-27 22:18:14
Nat iPhone12mini,iPhone 12 mini,55,Charging,16.817744,100.258276,5,Wifi,,,Mueang Phitsanulok District,"66 Wang Chan Road, Nai Mueang, Mueang Phitsanulok District, Phitsanulok 65000",2026-02-27 22:22:31
Nat iPhone12mini,iPhone 12 mini,60,Charging,16.817746,100.258275,4,Wifi,,,Mueang Phitsanulok District,"66 Wang Chan Road, Nai Mueang, Mueang Phitsanulok District, Phitsanulok 65000",2026-02-27 22:28:15
Nat iPhone12mini,iPhone 12 mini,63,Charging,16.817745,100.258276,4,Wifi,,,Mueang Phitsanulok District,"66 Wang Chan Road, Nai Mueang, Mueang Phitsanulok District, Phitsanulok 65000",2026-02-27 22:33:20
Nat iPhone12mini,iPhone 12 mini,66,Charging,16.817394,100.258123,8,Wifi,,,Mueang Phitsanulok District,"Phibun Songkhram Rajabhat University, Nai Mueang, Mueang Phitsanulok District, Phitsanulok 65000",2026-02-27 22:38:25
Nat iPhone12mini,iPhone 12 mini,68,Charging,16.817499,100.258162,7,Wifi,,,Mueang Phitsanulok District,"Phibun Songkhram Rajabhat University, Nai Mueang, Mueang Phitsanulok District, Phitsanulok 65000",2026-02-27 22:43:16
Nat iPhone12mini,iPhone 12 mini,70,Charging,16.817551,100.258175,6,Wifi,,,Mueang Phitsanulok District,"Phibun Songkhram Rajabhat University, Nai Mueang, Mueang Phitsanulok District, Phitsanulok 65000",2026-02-27 22:48:25
Nat iPhone12mini,iPhone 12 mini,72,Charging,16.81759,100.258179,5,Wifi,,,Mueang Phitsanulok District,"Phibun Songkhram Rajabhat University, Nai Mueang, Mueang Phitsanulok District, Phitsanulok 65000",2026-02-27 22:53:18
Nat iPhone12mini,iPhone 12 mini,74,Charging,16.817614,100.258184,5,Wifi,,,Mueang Phitsanulok District,"Phibun Songkhram Rajabhat University, Nai Mueang, Mueang Phitsanulok District, Phitsanulok 65000",2026-02-27 22:58:30
Nat iPhone12mini,iPhone 12 mini,75,Charging,16.817669,100.258201,3,Wifi,,,Mueang Phitsanulok District,"Pibulsongkram Rajabhat University, 66 Wang Chan Road, Nai Mueang, Mueang Phitsanulok District, Phitsanulok 65000",2026-02-27 23:03:37
Nat iPhone12mini,iPhone 12 mini,76,Charging,16.817672,100.258201,3,Wifi,,,Mueang Phitsanulok District,"Pibulsongkram Rajabhat University, 66 Wang Chan Road, Nai Mueang, Mueang Phitsanulok District, Phitsanulok 65000",2026-02-27 23:08:46
Nat iPhone12mini,iPhone 12 mini,78,Charging,16.817675,100.258203,3,Wifi,,,Mueang Phitsanulok District,"Pibulsongkram Rajabhat University, 66 Wang Chan Road, Nai Mueang, Mueang Phitsanulok District, Phitsanulok 65000",2026-02-27 23:13:57
Nat iPhone12mini,iPhone 12 mini,79,Charging,16.817677,100.258202,3,Wifi,,,Mueang Phitsanulok District,"Pibulsongkram Rajabhat University, 66 Wang Chan Road, Nai Mueang, Mueang Phitsanulok District, Phitsanulok 65000",2026-02-27 23:19:04
Nat iPhone12mini,iPhone 12 mini,80,Charging,16.817681,100.258203,3,Wifi,,,Mueang Phitsanulok District,"Pibulsongkram Rajabhat University, 66 Wang Chan Road, Nai Mueang, Mueang Phitsanulok District, Phitsanulok 65000",2026-02-27 23:24:10
Nat iPhone12mini,iPhone 12 mini,81,Charging,16.817683,100.258202,3,Wifi,,,Mueang Phitsanulok District,"Pibulsongkram Rajabhat University, 66 Wang Chan Road, Nai Mueang, Mueang Phitsanulok District, Phitsanulok 65000",2026-02-27 23:29:18
Nat iPhone12mini,iPhone 12 mini,82,Charging,16.817685,100.258202,3,Wifi,,,Mueang Phitsanulok District,"Pibulsongkram Rajabhat University, 66 Wang Chan Road, Nai Mueang, Mueang Phitsanulok District, Phitsanulok 65000",2026-02-27 23:34:15
Nat iPhone12mini,iPhone 12 mini,82,Charging,16.817685,100.258202,3,Wifi,,,Mueang Phitsanulok District,"Pibulsongkram Rajabhat University, 66 Wang Chan Road, Nai Mueang, Mueang Phitsanulok District, Phitsanulok 65000",2026-02-27 23:34:15
Nat iPhone12mini,iPhone 12 mini,82,Charging,16.817687,100.258201,3,Wifi,,,Mueang Phitsanulok District,"Pibulsongkram Rajabhat University, 66 Wang Chan Road, Nai Mueang, Mueang Phitsanulok District, Phitsanulok 65000",2026-02-27 23:39:21
Nat iPhone12mini,iPhone 12 mini,83,Charging,16.817689,100.258202,3,Wifi,,,Mueang Phitsanulok District,"Pibulsongkram Rajabhat University, 66 Wang Chan Road, Nai Mueang, Mueang Phitsanulok District, Phitsanulok 65000",2026-02-27 23:44:42
Nat iPhone12mini,iPhone 12 mini,84,Charging,16.817691,100.258203,3,Wifi,,,Mueang Phitsanulok District,"Pibulsongkram Rajabhat University, 66 Wang Chan Road, Nai Mueang, Mueang Phitsanulok District, Phitsanulok 65000",2026-02-27 23:50:18
Nat iPhone12mini,iPhone 12 mini,84,Charging,16.817693,100.258202,3,Wifi,,,Mueang Phitsanulok District,"Pibulsongkram Rajabhat University, 66 Wang Chan Road, Nai Mueang, Mueang Phitsanulok District, Phitsanulok 65000",2026-02-27 23:54:57
Nat iPhone12mini,iPhone 12 mini,85,Charging,16.817695,100.258202,3,Wifi,,,Mueang Phitsanulok District,"Pibulsongkram Rajabhat University, 66 Wang Chan Road, Nai Mueang, Mueang Phitsanulok District, Phitsanulok 65000",2026-02-27 23:59:59
Nat iPhone12mini,iPhone 12 mini,86,Charging,16.817696,100.2582,3,Wifi,,,Mueang Phitsanulok District,"Pibulsongkram Rajabhat University, 66 Wang Chan Road, Nai Mueang, Mueang Phitsanulok District, Phitsanulok 65000",2026-02-28 00:05:06
Nat iPhone12mini,iPhone 12 mini,86,Charging,16.817698,100.2582,3,Wifi,,,Mueang Phitsanulok District,"Pibulsongkram Rajabhat University, 66 Wang Chan Road, Nai Mueang, Mueang Phitsanulok District, Phitsanulok 65000",2026-02-28 00:10:16
Nat iPhone12mini,iPhone 12 mini,86,Charging,16.817703,100.258201,3,Wifi,,,Mueang Phitsanulok District,"Pibulsongkram Rajabhat University, 66 Wang Chan Road, Nai Mueang, Mueang Phitsanulok District, Phitsanulok 65000",2026-02-28 00:15:21
Nat iPhone12mini,iPhone 12 mini,87,Charging,16.817705,100.258202,3,Wifi,,,Mueang Phitsanulok District,"Pibulsongkram Rajabhat University, 66 Wang Chan Road, Nai Mueang, Mueang Phitsanulok District, Phitsanulok 65000",2026-02-28 00:20:16
Nat iPhone12mini,iPhone 12 mini,87,Charging,16.817705,100.258201,3,Wifi,,,Mueang Phitsanulok District,"Pibulsongkram Rajabhat University, 66 Wang Chan Road, Nai Mueang, Mueang Phitsanulok District, Phitsanulok 65000",2026-02-28 00:25:35
Nat iPhone12mini,iPhone 12 mini,100,NotCharging,16.817705,100.2582,3,Wifi,,,Mueang Phitsanulok District,"Pibulsongkram Rajabhat University, 66 Wang Chan Road, Nai Mueang, Mueang Phitsanulok District, Phitsanulok 65000",2026-02-28 00:30:30
Nat iPhone12mini,iPhone 12 mini,100,NotCharging,16.817706,100.2582,3,Wifi,,,Mueang Phitsanulok District,"Pibulsongkram Rajabhat University, 66 Wang Chan Road, Nai Mueang, Mueang Phitsanulok District, Phitsanulok 65000",2026-02-28 00:35:37
Nat iPhone12mini,iPhone 12 mini,100,NotCharging,16.817707,100.258201,3,Wifi,,,Mueang Phitsanulok District,"Pibulsongkram Rajabhat University, 66 Wang Chan Road, Nai Mueang, Mueang Phitsanulok District, Phitsanulok 65000",2026-02-28 00:40:47
Nat iPhone12mini,iPhone 12 mini,100,NotCharging,16.817709,100.2582,3,Wifi,,,Mueang Phitsanulok District,"Pibulsongkram Rajabhat University, 66 Wang Chan Road, Nai Mueang, Mueang Phitsanulok District, Phitsanulok 65000",2026-02-28 00:46:04
Nat iPhone12mini,iPhone 12 mini,100,NotCharging,16.81771,100.258199,3,Wifi,,,Mueang Phitsanulok District,"Pibulsongkram Rajabhat University, 66 Wang Chan Road, Nai Mueang, Mueang Phitsanulok District, Phitsanulok 65000",2026-02-28 00:51:20
Nat iPhone12mini,iPhone 12 mini,100,NotCharging,16.817711,100.258199,3,Wifi,,,Mueang Phitsanulok District,"Pibulsongkram Rajabhat University, 66 Wang Chan Road, Nai Mueang, Mueang Phitsanulok District, Phitsanulok 65000",2026-02-28 00:56:01
Nat iPhone12mini,iPhone 12 mini,100,NotCharging,16.817711,100.258199,3,Wifi,,,Mueang Phitsanulok District,"Pibulsongkram Rajabhat University, 66 Wang Chan Road, Nai Mueang, Mueang Phitsanulok District, Phitsanulok 65000",2026-02-28 01:01:21
Nat iPhone12mini,iPhone 12 mini,100,NotCharging,16.817711,100.258198,3,Wifi,,,Mueang Phitsanulok District,"Pibulsongkram Rajabhat University, 66 Wang Chan Road, Nai Mueang, Mueang Phitsanulok District, Phitsanulok 65000",2026-02-28 01:06:25
Nat iPhone12mini,iPhone 12 mini,100,NotCharging,16.817712,100.258198,3,Wifi,,,Mueang Phitsanulok District,"Pibulsongkram Rajabhat University, 66 Wang Chan Road, Nai Mueang, Mueang Phitsanulok District, Phitsanulok 65000",2026-02-28 01:11:26
Nat iPhone12mini,iPhone 12 mini,100,NotCharging,16.817714,100.258198,3,Wifi,,,Mueang Phitsanulok District,"Pibulsongkram Rajabhat University, 66 Wang Chan Road, Nai Mueang, Mueang Phitsanulok District, Phitsanulok 65000",2026-02-28 01:16:32
Nat iPhone12mini,iPhone 12 mini,100,NotCharging,16.817714,100.2582,3,Wifi,,,Mueang Phitsanulok District,"Pibulsongkram Rajabhat University, 66 Wang Chan Road, Nai Mueang, Mueang Phitsanulok District, Phitsanulok 65000",2026-02-28 01:21:26
Nat iPhone12mini,iPhone 12 mini,100,NotCharging,16.817715,100.2582,3,Wifi,,,Mueang Phitsanulok District,"Pibulsongkram Rajabhat University, 66 Wang Chan Road, Nai Mueang, Mueang Phitsanulok District, Phitsanulok 65000",2026-02-28 01:26:33
Nat iPhone12mini,iPhone 12 mini,100,NotCharging,16.817717,100.258201,3,Wifi,,,Mueang Phitsanulok District,"Pibulsongkram Rajabhat University, 66 Wang Chan Road, Nai Mueang, Mueang Phitsanulok District, Phitsanulok 65000",2026-02-28 01:32:03
Nat iPhone12mini,iPhone 12 mini,100,NotCharging,16.817717,100.258203,3,Wifi,,,Mueang Phitsanulok District,"Pibulsongkram Rajabhat University, 66 Wang Chan Road, Nai Mueang, Mueang Phitsanulok District, Phitsanulok 65000",2026-02-28 01:37:22
Nat iPhone12mini,iPhone 12 mini,100,NotCharging,16.817717,100.258205,3,Wifi,,,Mueang Phitsanulok District,"Pibulsongkram Rajabhat University, 66 Wang Chan Road, Nai Mueang, Mueang Phitsanulok District, Phitsanulok 65000",2026-02-28 01:42:15
Nat iPhone12mini,iPhone 12 mini,100,NotCharging,16.817716,100.258205,3,Wifi,,,Mueang Phitsanulok District,"Pibulsongkram Rajabhat University, 66 Wang Chan Road, Nai Mueang, Mueang Phitsanulok District, Phitsanulok 65000",2026-02-28 01:47:19
Nat iPhone12mini,iPhone 12 mini,100,NotCharging,16.817716,100.258204,3,Wifi,,,Mueang Phitsanulok District,"Pibulsongkram Rajabhat University, 66 Wang Chan Road, Nai Mueang, Mueang Phitsanulok District, Phitsanulok 65000",2026-02-28 01:52:26
Nat iPhone12mini,iPhone 12 mini,100,NotCharging,16.817716,100.258205,3,Wifi,,,Mueang Phitsanulok District,"Pibulsongkram Rajabhat University, 66 Wang Chan Road, Nai Mueang, Mueang Phitsanulok District, Phitsanulok 65000",2026-02-28 01:57:18
Nat iPhone12mini,iPhone 12 mini,100,NotCharging,16.817718,100.258208,3,Wifi,,,Mueang Phitsanulok District,"Pibulsongkram Rajabhat University, 66 Wang Chan Road, Nai Mueang, Mueang Phitsanulok District, Phitsanulok 65000",2026-02-28 02:02:46
Nat iPhone12mini,iPhone 12 mini,100,NotCharging,16.817718,100.258208,3,Wifi,,,Mueang Phitsanulok District,"Pibulsongkram Rajabhat University, 66 Wang Chan Road, Nai Mueang, Mueang Phitsanulok District, Phitsanulok 65000",2026-02-28 02:07:36
Nat iPhone12mini,iPhone 12 mini,100,NotCharging,16.817717,100.258207,3,Wifi,,,Mueang Phitsanulok District,"Pibulsongkram Rajabhat University, 66 Wang Chan Road, Nai Mueang, Mueang Phitsanulok District, Phitsanulok 65000",2026-02-28 02:12:47
Nat iPhone12mini,iPhone 12 mini,100,NotCharging,16.817717,100.258208,3,Wifi,,,Mueang Phitsanulok District,"Pibulsongkram Rajabhat University, 66 Wang Chan Road, Nai Mueang, Mueang Phitsanulok District, Phitsanulok 65000",2026-02-28 02:17:55
Nat iPhone12mini,iPhone 12 mini,100,NotCharging,16.817717,100.258208,3,Wifi,,,Mueang Phitsanulok District,"Pibulsongkram Rajabhat University, 66 Wang Chan Road, Nai Mueang, Mueang Phitsanulok District, Phitsanulok 65000",2026-02-28 02:23:04
Nat iPhone12mini,iPhone 12 mini,100,NotCharging,16.817716,100.258207,3,Wifi,,,Mueang Phitsanulok District,"Pibulsongkram Rajabhat University, 66 Wang Chan Road, Nai Mueang, Mueang Phitsanulok District, Phitsanulok 65000",2026-02-28 02:28:15
Nat iPhone12mini,iPhone 12 mini,100,NotCharging,16.817715,100.258206,3,Wifi,,,Mueang Phitsanulok District,"Pibulsongkram Rajabhat University, 66 Wang Chan Road, Nai Mueang, Mueang Phitsanulok District, Phitsanulok 65000",2026-02-28 02:33:19
Nat iPhone12mini,iPhone 12 mini,100,NotCharging,16.817715,100.258206,3,Wifi,,,Mueang Phitsanulok District,"Pibulsongkram Rajabhat University, 66 Wang Chan Road, Nai Mueang, Mueang Phitsanulok District, Phitsanulok 65000",2026-02-28 02:38:16
Nat iPhone12mini,iPhone 12 mini,100,NotCharging,16.817715,100.258205,3,Wifi,,,Mueang Phitsanulok District,"Pibulsongkram Rajabhat University, 66 Wang Chan Road, Nai Mueang, Mueang Phitsanulok District, Phitsanulok 65000",2026-02-28 02:43:28
Nat iPhone12mini,iPhone 12 mini,100,NotCharging,16.817716,100.258205,3,Wifi,,,Mueang Phitsanulok District,"Pibulsongkram Rajabhat University, 66 Wang Chan Road, Nai Mueang, Mueang Phitsanulok District, Phitsanulok 65000",2026-02-28 02:48:41
Nat iPhone12mini,iPhone 12 mini,100,NotCharging,16.817716,100.258207,3,Wifi,,,Mueang Phitsanulok District,"Pibulsongkram Rajabhat University, 66 Wang Chan Road, Nai Mueang, Mueang Phitsanulok District, Phitsanulok 65000",2026-02-28 02:53:38
Nat iPhone12mini,iPhone 12 mini,100,NotCharging,16.817716,100.258207,3,Wifi,,,Mueang Phitsanulok District,"Pibulsongkram Rajabhat University, 66 Wang Chan Road, Nai Mueang, Mueang Phitsanulok District, Phitsanulok 65000",2026-02-28 02:58:43
Nat iPhone12mini,iPhone 12 mini,100,NotCharging,16.817716,100.258207,3,Wifi,,,Mueang Phitsanulok District,"Pibulsongkram Rajabhat University, 66 Wang Chan Road, Nai Mueang, Mueang Phitsanulok District, Phitsanulok 65000",2026-02-28 03:04:35
Nat iPhone12mini,iPhone 12 mini,100,NotCharging,16.817715,100.258207,3,Wifi,,,Mueang Phitsanulok District,"Pibulsongkram Rajabhat University, 66 Wang Chan Road, Nai Mueang, Mueang Phitsanulok District, Phitsanulok 65000",2026-02-28 03:09:24
Nat iPhone12mini,iPhone 12 mini,100,NotCharging,16.817716,100.25821,3,Wifi,,,Mueang Phitsanulok District,"Pibulsongkram Rajabhat University, 66 Wang Chan Road, Nai Mueang, Mueang Phitsanulok District, Phitsanulok 65000",2026-02-28 03:14:16
Nat iPhone12mini,iPhone 12 mini,100,NotCharging,16.817718,100.258214,3,Wifi,,,Mueang Phitsanulok District,"Pibulsongkram Rajabhat University, 66 Wang Chan Road, Nai Mueang, Mueang Phitsanulok District, Phitsanulok 65000",2026-02-28 03:19:20
Nat iPhone12mini,iPhone 12 mini,100,NotCharging,16.817718,100.258214,3,Wifi,,,Mueang Phitsanulok District,"Pibulsongkram Rajabhat University, 66 Wang Chan Road, Nai Mueang, Mueang Phitsanulok District, Phitsanulok 65000",2026-02-28 03:19:20
Nat iPhone12mini,iPhone 12 mini,100,NotCharging,16.817721,100.258217,3,Wifi,,,Mueang Phitsanulok District,"Pibulsongkram Rajabhat University, 66 Wang Chan Road, Nai Mueang, Mueang Phitsanulok District, Phitsanulok 65000",2026-02-28 03:24:31
Nat iPhone12mini,iPhone 12 mini,100,NotCharging,16.817722,100.25822,3,Wifi,,,Mueang Phitsanulok District,"Pibulsongkram Rajabhat University, 66 Wang Chan Road, Nai Mueang, Mueang Phitsanulok District, Phitsanulok 65000",2026-02-28 03:29:33
Nat iPhone12mini,iPhone 12 mini,100,NotCharging,16.817723,100.25822,3,Wifi,,,Mueang Phitsanulok District,"Pibulsongkram Rajabhat University, 66 Wang Chan Road, Nai Mueang, Mueang Phitsanulok District, Phitsanulok 65000",2026-02-28 03:34:47
Nat iPhone12mini,iPhone 12 mini,100,NotCharging,16.817722,100.258218,3,Wifi,,,Mueang Phitsanulok District,"Pibulsongkram Rajabhat University, 66 Wang Chan Road, Nai Mueang, Mueang Phitsanulok District, Phitsanulok 65000",2026-02-28 03:39:42
Nat iPhone12mini,iPhone 12 mini,100,NotCharging,16.817722,100.258216,3,Wifi,,,Mueang Phitsanulok District,"Pibulsongkram Rajabhat University, 66 Wang Chan Road, Nai Mueang, Mueang Phitsanulok District, Phitsanulok 65000",2026-02-28 03:45:08
Nat iPhone12mini,iPhone 12 mini,100,NotCharging,16.817722,100.258216,3,Wifi,,,Mueang Phitsanulok District,"Pibulsongkram Rajabhat University, 66 Wang Chan Road, Nai Mueang, Mueang Phitsanulok District, Phitsanulok 65000",2026-02-28 03:50:44
Nat iPhone12mini,iPhone 12 mini,100,NotCharging,16.817723,100.258216,3,Wifi,,,Mueang Phitsanulok District,"Pibulsongkram Rajabhat University, 66 Wang Chan Road, Nai Mueang, Mueang Phitsanulok District, Phitsanulok 65000",2026-02-28 03:55:22
Nat iPhone12mini,iPhone 12 mini,100,NotCharging,16.817723,100.258216,3,Wifi,,,Mueang Phitsanulok District,"Pibulsongkram Rajabhat University, 66 Wang Chan Road, Nai Mueang, Mueang Phitsanulok District, Phitsanulok 65000",2026-02-28 04:01:00
Nat iPhone12mini,iPhone 12 mini,100,NotCharging,16.817722,100.258214,3,Wifi,,,Mueang Phitsanulok District,"Pibulsongkram Rajabhat University, 66 Wang Chan Road, Nai Mueang, Mueang Phitsanulok District, Phitsanulok 65000",2026-02-28 04:05:28
Nat iPhone12mini,iPhone 12 mini,100,NotCharging,16.817721,100.258214,3,Wifi,,,Mueang Phitsanulok District,"Pibulsongkram Rajabhat University, 66 Wang Chan Road, Nai Mueang, Mueang Phitsanulok District, Phitsanulok 65000",2026-02-28 04:10:32
Nat iPhone12mini,iPhone 12 mini,100,NotCharging,16.817722,100.258214,3,Wifi,,,Mueang Phitsanulok District,"Pibulsongkram Rajabhat University, 66 Wang Chan Road, Nai Mueang, Mueang Phitsanulok District, Phitsanulok 65000",2026-02-28 04:16:02
Nat iPhone12mini,iPhone 12 mini,100,NotCharging,16.817721,100.258213,3,Wifi,,,Mueang Phitsanulok District,"Pibulsongkram Rajabhat University, 66 Wang Chan Road, Nai Mueang, Mueang Phitsanulok District, Phitsanulok 65000",2026-02-28 04:20:45
Nat iPhone12mini,iPhone 12 mini,100,NotCharging,16.81772,100.258212,3,Wifi,,,Mueang Phitsanulok District,"Pibulsongkram Rajabhat University, 66 Wang Chan Road, Nai Mueang, Mueang Phitsanulok District, Phitsanulok 65000",2026-02-28 04:26:36
Nat iPhone12mini,iPhone 12 mini,100,NotCharging,16.817721,100.258215,3,Wifi,,,Mueang Phitsanulok District,"Pibulsongkram Rajabhat University, 66 Wang Chan Road, Nai Mueang, Mueang Phitsanulok District, Phitsanulok 65000",2026-02-28 04:31:22
Nat iPhone12mini,iPhone 12 mini,100,NotCharging,16.817721,100.258216,3,Wifi,,,Mueang Phitsanulok District,"Pibulsongkram Rajabhat University, 66 Wang Chan Road, Nai Mueang, Mueang Phitsanulok District, Phitsanulok 65000",2026-02-28 04:36:09
Nat iPhone12mini,iPhone 12 mini,100,NotCharging,16.81772,100.258216,3,Wifi,,,Mueang Phitsanulok District,"Pibulsongkram Rajabhat University, 66 Wang Chan Road, Nai Mueang, Mueang Phitsanulok District, Phitsanulok 65000",2026-02-28 04:41:20
Nat iPhone12mini,iPhone 12 mini,100,NotCharging,16.81772,100.258216,3,Wifi,,,Mueang Phitsanulok District,"Pibulsongkram Rajabhat University, 66 Wang Chan Road, Nai Mueang, Mueang Phitsanulok District, Phitsanulok 65000",2026-02-28 04:46:16
Nat iPhone12mini,iPhone 12 mini,100,NotCharging,16.81772,100.258214,3,Wifi,,,Mueang Phitsanulok District,"Pibulsongkram Rajabhat University, 66 Wang Chan Road, Nai Mueang, Mueang Phitsanulok District, Phitsanulok 65000",2026-02-28 04:51:28
Nat iPhone12mini,iPhone 12 mini,100,NotCharging,16.817719,100.258214,3,Wifi,,,Mueang Phitsanulok District,"Pibulsongkram Rajabhat University, 66 Wang Chan Road, Nai Mueang, Mueang Phitsanulok District, Phitsanulok 65000",2026-02-28 04:56:25
Nat iPhone12mini,iPhone 12 mini,100,NotCharging,16.81772,100.258214,3,Wifi,,,Mueang Phitsanulok District,"Pibulsongkram Rajabhat University, 66 Wang Chan Road, Nai Mueang, Mueang Phitsanulok District, Phitsanulok 65000",2026-02-28 05:01:42
Nat iPhone12mini,iPhone 12 mini,100,NotCharging,16.81772,100.258213,3,Wifi,,,Mueang Phitsanulok District,"Pibulsongkram Rajabhat University, 66 Wang Chan Road, Nai Mueang, Mueang Phitsanulok District, Phitsanulok 65000",2026-02-28 05:07:02
Nat iPhone12mini,iPhone 12 mini,100,NotCharging,16.817718,100.258211,3,Wifi,,,Mueang Phitsanulok District,"Pibulsongkram Rajabhat University, 66 Wang Chan Road, Nai Mueang, Mueang Phitsanulok District, Phitsanulok 65000",2026-02-28 05:12:34
Nat iPhone12mini,iPhone 12 mini,100,NotCharging,16.817718,100.258211,3,Wifi,,,Mueang Phitsanulok District,"Pibulsongkram Rajabhat University, 66 Wang Chan Road, Nai Mueang, Mueang Phitsanulok District, Phitsanulok 65000",2026-02-28 05:17:17
Nat iPhone12mini,iPhone 12 mini,100,NotCharging,16.817718,100.258209,3,Wifi,,,Mueang Phitsanulok District,"Pibulsongkram Rajabhat University, 66 Wang Chan Road, Nai Mueang, Mueang Phitsanulok District, Phitsanulok 65000",2026-02-28 05:22:15
Nat iPhone12mini,iPhone 12 mini,100,NotCharging,16.817718,100.258209,3,Wifi,,,Mueang Phitsanulok District,"Pibulsongkram Rajabhat University, 66 Wang Chan Road, Nai Mueang, Mueang Phitsanulok District, Phitsanulok 65000",2026-02-28 05:27:21
Nat iPhone12mini,iPhone 12 mini,100,NotCharging,16.81772,100.258208,3,Wifi,,,Mueang Phitsanulok District,"Pibulsongkram Rajabhat University, 66 Wang Chan Road, Nai Mueang, Mueang Phitsanulok District, Phitsanulok 65000",2026-02-28 05:32:18
Nat iPhone12mini,iPhone 12 mini,100,NotCharging,16.81772,100.258206,3,Wifi,,,Mueang Phitsanulok District,"Pibulsongkram Rajabhat University, 66 Wang Chan Road, Nai Mueang, Mueang Phitsanulok District, Phitsanulok 65000",2026-02-28 05:37:42
Nat iPhone12mini,iPhone 12 mini,100,NotCharging,16.81772,100.258206,3,Wifi,,,Mueang Phitsanulok District,"Pibulsongkram Rajabhat University, 66 Wang Chan Road, Nai Mueang, Mueang Phitsanulok District, Phitsanulok 65000",2026-02-28 05:42:37
Nat iPhone12mini,iPhone 12 mini,100,NotCharging,16.817721,100.258206,3,Wifi,,,Mueang Phitsanulok District,"Pibulsongkram Rajabhat University, 66 Wang Chan Road, Nai Mueang, Mueang Phitsanulok District, Phitsanulok 65000",2026-02-28 05:48:25
Nat iPhone12mini,iPhone 12 mini,100,NotCharging,16.817721,100.258205,3,Wifi,,,Mueang Phitsanulok District,"Pibulsongkram Rajabhat University, 66 Wang Chan Road, Nai Mueang, Mueang Phitsanulok District, Phitsanulok 65000",2026-02-28 05:53:04
Nat iPhone12mini,iPhone 12 mini,100,NotCharging,16.81772,100.258206,3,Wifi,,,Mueang Phitsanulok District,"Pibulsongkram Rajabhat University, 66 Wang Chan Road, Nai Mueang, Mueang Phitsanulok District, Phitsanulok 65000",2026-02-28 05:57:53
Nat iPhone12mini,iPhone 12 mini,100,NotCharging,16.817719,100.258208,3,Wifi,,,Mueang Phitsanulok District,"Pibulsongkram Rajabhat University, 66 Wang Chan Road, Nai Mueang, Mueang Phitsanulok District, Phitsanulok 65000",2026-02-28 06:01:40
Nat iPhone12mini,iPhone 12 mini,100,NotCharging,16.81772,100.25821,3,Wifi,,,Mueang Phitsanulok District,"Pibulsongkram Rajabhat University, 66 Wang Chan Road, Nai Mueang, Mueang Phitsanulok District, Phitsanulok 65000",2026-02-28 06:06:31
Nat iPhone12mini,iPhone 12 mini,100,NotCharging,16.817719,100.258213,3,Wifi,,,Mueang Phitsanulok District,"Pibulsongkram Rajabhat University, 66 Wang Chan Road, Nai Mueang, Mueang Phitsanulok District, Phitsanulok 65000",2026-02-28 06:11:20
Nat iPhone12mini,iPhone 12 mini,100,NotCharging,16.817717,100.258213,3,Wifi,,,Mueang Phitsanulok District,"Pibulsongkram Rajabhat University, 66 Wang Chan Road, Nai Mueang, Mueang Phitsanulok District, Phitsanulok 65000",2026-02-28 06:16:30
Nat iPhone12mini,iPhone 12 mini,100,NotCharging,16.817717,100.258212,3,Wifi,,,Mueang Phitsanulok District,"Pibulsongkram Rajabhat University, 66 Wang Chan Road, Nai Mueang, Mueang Phitsanulok District, Phitsanulok 65000",2026-02-28 06:21:29
Nat iPhone12mini,iPhone 12 mini,100,NotCharging,16.817716,100.258212,3,Wifi,,,Mueang Phitsanulok District,"Pibulsongkram Rajabhat University, 66 Wang Chan Road, Nai Mueang, Mueang Phitsanulok District, Phitsanulok 65000",2026-02-28 06:26:46
Nat iPhone12mini,iPhone 12 mini,100,NotCharging,16.817715,100.258211,3,Wifi,,,Mueang Phitsanulok District,"Pibulsongkram Rajabhat University, 66 Wang Chan Road, Nai Mueang, Mueang Phitsanulok District, Phitsanulok 65000",2026-02-28 06:32:30
Nat iPhone12mini,iPhone 12 mini,100,NotCharging,16.817714,100.258211,3,Wifi,,,Mueang Phitsanulok District,"Pibulsongkram Rajabhat University, 66 Wang Chan Road, Nai Mueang, Mueang Phitsanulok District, Phitsanulok 65000",2026-02-28 06:37:03
Nat iPhone12mini,iPhone 12 mini,100,NotCharging,16.817713,100.258211,3,Wifi,,,Mueang Phitsanulok District,"Pibulsongkram Rajabhat University, 66 Wang Chan Road, Nai Mueang, Mueang Phitsanulok District, Phitsanulok 65000",2026-02-28 06:42:10
Nat iPhone12mini,iPhone 12 mini,100,NotCharging,16.81771,100.258212,3,Wifi,,,Mueang Phitsanulok District,"Pibulsongkram Rajabhat University, 66 Wang Chan Road, Nai Mueang, Mueang Phitsanulok District, Phitsanulok 65000",2026-02-28 06:47:15
Nat iPhone12mini,iPhone 12 mini,100,NotCharging,16.817709,100.258211,3,Wifi,,,Mueang Phitsanulok District,"Pibulsongkram Rajabhat University, 66 Wang Chan Road, Nai Mueang, Mueang Phitsanulok District, Phitsanulok 65000",2026-02-28 06:52:15
Nat iPhone12mini,iPhone 12 mini,100,NotCharging,16.817707,100.258211,3,Wifi,,,Mueang Phitsanulok District,"Pibulsongkram Rajabhat University, 66 Wang Chan Road, Nai Mueang, Mueang Phitsanulok District, Phitsanulok 65000",2026-02-28 06:57:30
Nat iPhone12mini,iPhone 12 mini,100,NotCharging,16.817707,100.258212,3,Wifi,,,Mueang Phitsanulok District,"Pibulsongkram Rajabhat University, 66 Wang Chan Road, Nai Mueang, Mueang Phitsanulok District, Phitsanulok 65000",2026-02-28 07:02:43
Nat iPhone12mini,iPhone 12 mini,100,NotCharging,16.817707,100.258213,3,Wifi,,,Mueang Phitsanulok District,"Pibulsongkram Rajabhat University, 66 Wang Chan Road, Nai Mueang, Mueang Phitsanulok District, Phitsanulok 65000",2026-02-28 07:07:55
Nat iPhone12mini,iPhone 12 mini,100,NotCharging,16.817706,100.258212,3,Wifi,,,Mueang Phitsanulok District,"Pibulsongkram Rajabhat University, 66 Wang Chan Road, Nai Mueang, Mueang Phitsanulok District, Phitsanulok 65000",2026-02-28 07:13:03
Nat iPhone12mini,iPhone 12 mini,100,NotCharging,16.817785,100.258174,14,GPS,,,Mueang Phitsanulok District,"Pibulsongkram Rajabhat University, 66 Wang Chan Road, Nai Mueang, Mueang Phitsanulok District, Phitsanulok 65000",2026-02-28 07:18:02
Nat iPhone12mini,iPhone 12 mini,100,NotCharging,16.81775,100.258123,9,Wifi,,,Mueang Phitsanulok District,"Pibulsongkram Rajabhat University, 66 Wang Chan Road, Nai Mueang, Mueang Phitsanulok District, Phitsanulok 65000",2026-02-28 07:23:01
Nat iPhone12mini,iPhone 12 mini,100,NotCharging,16.817756,100.258145,8,Wifi,,,Mueang Phitsanulok District,"Pibulsongkram Rajabhat University, 66 Wang Chan Road, Nai Mueang, Mueang Phitsanulok District, Phitsanulok 65000",2026-02-28 07:28:13
Nat iPhone12mini,iPhone 12 mini,100,NotCharging,16.81777,100.258154,7,Wifi,,,Mueang Phitsanulok District,"Pibulsongkram Rajabhat University, 66 Wang Chan Road, Nai Mueang, Mueang Phitsanulok District, Phitsanulok 65000",2026-02-28 07:33:27
Nat iPhone12mini,iPhone 12 mini,100,NotCharging,16.817775,100.258166,6,Wifi,,,Mueang Phitsanulok District,"Pibulsongkram Rajabhat University, 66 Wang Chan Road, Nai Mueang, Mueang Phitsanulok District, Phitsanulok 65000",2026-02-28 07:39:09
Nat iPhone12mini,iPhone 12 mini,100,NotCharging,16.817775,100.258168,6,Wifi,,,Mueang Phitsanulok District,"Pibulsongkram Rajabhat University, 66 Wang Chan Road, Nai Mueang, Mueang Phitsanulok District, Phitsanulok 65000",2026-02-28 07:44:14
Nat iPhone12mini,iPhone 12 mini,100,NotCharging,16.817773,100.258171,6,Wifi,,,Mueang Phitsanulok District,"Pibulsongkram Rajabhat University, 66 Wang Chan Road, Nai Mueang, Mueang Phitsanulok District, Phitsanulok 65000",2026-02-28 07:48:48
Nat iPhone12mini,iPhone 12 mini,100,NotCharging,16.817765,100.258181,5,Wifi,,,Mueang Phitsanulok District,"Pibulsongkram Rajabhat University, 66 Wang Chan Road, Nai Mueang, Mueang Phitsanulok District, Phitsanulok 65000",2026-02-28 07:54:35
Nat iPhone12mini,iPhone 12 mini,100,NotCharging,16.817755,100.258186,5,Wifi,,,Mueang Phitsanulok District,"Pibulsongkram Rajabhat University, 66 Wang Chan Road, Nai Mueang, Mueang Phitsanulok District, Phitsanulok 65000",2026-02-28 07:59:09
Nat iPhone12mini,iPhone 12 mini,100,NotCharging,16.817753,100.258183,5,Wifi,,,Mueang Phitsanulok District,"Pibulsongkram Rajabhat University, 66 Wang Chan Road, Nai Mueang, Mueang Phitsanulok District, Phitsanulok 65000",2026-02-28 08:04:16
Nat iPhone12mini,iPhone 12 mini,100,NotCharging,16.817753,100.258182,4,Wifi,,,Mueang Phitsanulok District,"Pibulsongkram Rajabhat University, 66 Wang Chan Road, Nai Mueang, Mueang Phitsanulok District, Phitsanulok 65000",2026-02-28 08:09:36
Nat iPhone12mini,iPhone 12 mini,100,NotCharging,16.817753,100.258182,4,Wifi,,,Mueang Phitsanulok District,"Pibulsongkram Rajabhat University, 66 Wang Chan Road, Nai Mueang, Mueang Phitsanulok District, Phitsanulok 65000",2026-02-28 08:09:36
Nat iPhone12mini,iPhone 12 mini,100,NotCharging,16.817753,100.258177,4,Wifi,,,Mueang Phitsanulok District,"Pibulsongkram Rajabhat University, 66 Wang Chan Road, Nai Mueang, Mueang Phitsanulok District, Phitsanulok 65000",2026-02-28 08:14:27
Nat iPhone12mini,iPhone 12 mini,100,NotCharging,16.817697,100.258004,8,Wifi,,,Mueang Phitsanulok District,"Phibun Songkhram Rajabhat University, Nai Mueang, Mueang Phitsanulok District, Phitsanulok 65000",2026-02-28 08:19:33
Nat iPhone12mini,iPhone 12 mini,100,NotCharging,16.817698,100.258077,7,unknown,,,Mueang Phitsanulok District,"Phibun Songkhram Rajabhat University, Nai Mueang, Mueang Phitsanulok District, Phitsanulok 65000",2026-02-28 08:24:35
Nat iPhone12mini,iPhone 12 mini,100,Charged,16.817708,100.258153,7,Wifi,,,Mueang Phitsanulok District,"Pibulsongkram Rajabhat University, 66 Wang Chan Road, Nai Mueang, Mueang Phitsanulok District, Phitsanulok 65000",2026-02-28 08:30:25
Nat iPhone12mini,iPhone 12 mini,100,Charged,16.817714,100.258178,6,Wifi,,,Mueang Phitsanulok District,"Pibulsongkram Rajabhat University, 66 Wang Chan Road, Nai Mueang, Mueang Phitsanulok District, Phitsanulok 65000",2026-02-28 08:35:05
Nat iPhone12mini,iPhone 12 mini,100,NotCharging,16.817717,100.258201,6,Wifi,,,Mueang Phitsanulok District,"Pibulsongkram Rajabhat University, 66 Wang Chan Road, Nai Mueang, Mueang Phitsanulok District, Phitsanulok 65000",2026-02-28 08:40:15
Nat iPhone12mini,iPhone 12 mini,100,NotCharging,16.817832,100.258187,40,unknown,,,Mueang Phitsanulok District,"Pibulsongkram Rajabhat University, 66 Wang Chan Road, Nai Mueang, Mueang Phitsanulok District, Phitsanulok 65000",2026-02-28 08:45:18
Nat iPhone12mini,iPhone 12 mini,100,NotCharging,16.830032,100.25015,6,GPS,,,Mueang Phitsanulok District,"201/4 Moo 2, Nai Mueang, Mueang Phitsanulok District, Phitsanulok 65000",2026-02-28 08:50:31
Nat iPhone12mini,iPhone 12 mini,100,NotCharging,16.834802,100.225829,5,GPS,,,Mueang Phitsanulok District,"2/6 Soi Samakkhi, Ban Khlong, Mueang Phitsanulok District, Phitsanulok 65000",2026-02-28 08:55:29
Nat iPhone12mini,iPhone 12 mini,100,NotCharging,16.83486,100.213662,9,GPS,,,Mueang Phitsanulok District,"Pibulsongkram Rajabhat University, Thale Thip Road, Phlai Chumphon, Mueang Phitsanulok District, Phitsanulok 65000",2026-02-28 09:01:13
Nat iPhone12mini,iPhone 12 mini,99,NotCharging,16.83489,100.213659,10,Wifi,,,Mueang Phitsanulok District,"Pibulsongkram Rajabhat University, Thale Thip Road, Phlai Chumphon, Mueang Phitsanulok District, Phitsanulok 65000",2026-02-28 09:06:56
Nat iPhone12mini,iPhone 12 mini,99,NotCharging,16.834891,100.213659,6,Wifi,,,Mueang Phitsanulok District,"Pibulsongkram Rajabhat University, Thale Thip Road, Phlai Chumphon, Mueang Phitsanulok District, Phitsanulok 65000",2026-02-28 09:11:14
Nat iPhone12mini,iPhone 12 mini,98,NotCharging,16.83489,100.213659,6,Wifi,,,Mueang Phitsanulok District,"Pibulsongkram Rajabhat University, Thale Thip Road, Phlai Chumphon, Mueang Phitsanulok District, Phitsanulok 65000",2026-02-28 09:16:28
Nat iPhone12mini,iPhone 12 mini,98,NotCharging,16.83489,100.213659,10,GPS,,,Mueang Phitsanulok District,"Pibulsongkram Rajabhat University, Thale Thip Road, Phlai Chumphon, Mueang Phitsanulok District, Phitsanulok 65000",2026-02-28 09:21:38
Nat iPhone12mini,iPhone 12 mini,97,NotCharging,16.83489,100.213659,10,Wifi,,,Mueang Phitsanulok District,"Pibulsongkram Rajabhat University, Thale Thip Road, Phlai Chumphon, Mueang Phitsanulok District, Phitsanulok 65000",2026-02-28 09:26:38
Nat iPhone12mini,iPhone 12 mini,97,NotCharging,16.83489,100.213659,8,Wifi,,,Mueang Phitsanulok District,"Pibulsongkram Rajabhat University, Thale Thip Road, Phlai Chumphon, Mueang Phitsanulok District, Phitsanulok 65000",2026-02-28 09:32:32
Nat iPhone12mini,iPhone 12 mini,96,NotCharging,16.834787,100.213666,6,GPS,,,Mueang Phitsanulok District,"Pibulsongkram Rajabhat University, Thale Thip Road, Phlai Chumphon, Mueang Phitsanulok District, Phitsanulok 65000",2026-02-28 09:37:23
Nat iPhone12mini,iPhone 12 mini,96,NotCharging,16.834882,100.213656,9,GPS,,,Mueang Phitsanulok District,"Pibulsongkram Rajabhat University, Thale Thip Road, Phlai Chumphon, Mueang Phitsanulok District, Phitsanulok 65000",2026-02-28 09:42:20
Nat iPhone12mini,iPhone 12 mini,95,NotCharging,16.834884,100.213655,10,Wifi,,,Mueang Phitsanulok District,"Pibulsongkram Rajabhat University, Thale Thip Road, Phlai Chumphon, Mueang Phitsanulok District, Phitsanulok 65000",2026-02-28 09:47:11
Nat iPhone12mini,iPhone 12 mini,95,NotCharging,16.834883,100.213657,8,Wifi,,,Mueang Phitsanulok District,"Pibulsongkram Rajabhat University, Thale Thip Road, Phlai Chumphon, Mueang Phitsanulok District, Phitsanulok 65000",2026-02-28 09:53:01
Nat iPhone12mini,iPhone 12 mini,94,NotCharging,16.834881,100.213658,8,Wifi,,,Mueang Phitsanulok District,"Pibulsongkram Rajabhat University, Thale Thip Road, Phlai Chumphon, Mueang Phitsanulok District, Phitsanulok 65000",2026-02-28 09:57:17
Nat iPhone12mini,iPhone 12 mini,94,NotCharging,16.834881,100.213658,8,Wifi,,,Mueang Phitsanulok District,"Pibulsongkram Rajabhat University, Thale Thip Road, Phlai Chumphon, Mueang Phitsanulok District, Phitsanulok 65000",2026-02-28 09:57:17
Nat iPhone12mini,iPhone 12 mini,93,NotCharging,16.834881,100.213657,7,Wifi,,,Mueang Phitsanulok District,"Pibulsongkram Rajabhat University, Thale Thip Road, Phlai Chumphon, Mueang Phitsanulok District, Phitsanulok 65000",2026-02-28 10:09:12
Nat iPhone12mini,iPhone 12 mini,93,NotCharging,16.834882,100.213659,7,Wifi,,,Mueang Phitsanulok District,"Pibulsongkram Rajabhat University, Thale Thip Road, Phlai Chumphon, Mueang Phitsanulok District, Phitsanulok 65000",2026-02-28 10:14:34
Nat iPhone12mini,iPhone 12 mini,92,NotCharging,16.834878,100.213662,8,Wifi,,,Mueang Phitsanulok District,"Pibulsongkram Rajabhat University, Thale Thip Road, Phlai Chumphon, Mueang Phitsanulok District, Phitsanulok 65000",2026-02-28 10:19:40
Nat iPhone12mini,iPhone 12 mini,92,NotCharging,16.834877,100.213663,10,GPS,,,Mueang Phitsanulok District,"Pibulsongkram Rajabhat University, Thale Thip Road, Phlai Chumphon, Mueang Phitsanulok District, Phitsanulok 65000",2026-02-28 10:24:20
Nat iPhone12mini,iPhone 12 mini,91,NotCharging,16.834879,100.213669,7,Wifi,,,Mueang Phitsanulok District,"Pibulsongkram Rajabhat University, Thale Thip Road, Phlai Chumphon, Mueang Phitsanulok District, Phitsanulok 65000",2026-02-28 10:29:33
Nat iPhone12mini,iPhone 12 mini,90,NotCharging,16.834878,100.213659,9,Wifi,,,Mueang Phitsanulok District,"Pibulsongkram Rajabhat University, Thale Thip Road, Phlai Chumphon, Mueang Phitsanulok District, Phitsanulok 65000",2026-02-28 10:34:28
Nat iPhone12mini,iPhone 12 mini,89,NotCharging,16.834853,100.213733,8,Wifi,,,Mueang Phitsanulok District,"Pibulsongkram Rajabhat University, Thale Thip Road, Phlai Chumphon, Mueang Phitsanulok District, Phitsanulok 65000",2026-02-28 10:40:14
Nat iPhone12mini,iPhone 12 mini,89,NotCharging,16.834808,100.213599,9,GPS,,,Mueang Phitsanulok District,"Pibulsongkram Rajabhat University, Thale Thip Road, Phlai Chumphon, Mueang Phitsanulok District, Phitsanulok 65000",2026-02-28 10:44:44
Nat iPhone12mini,iPhone 12 mini,88,NotCharging,16.83488,100.213657,12,Wifi,,,Mueang Phitsanulok District,"Pibulsongkram Rajabhat University, Thale Thip Road, Phlai Chumphon, Mueang Phitsanulok District, Phitsanulok 65000",2026-02-28 10:50:03
Nat iPhone12mini,iPhone 12 mini,88,NotCharging,16.834883,100.213659,7,Wifi,,,Mueang Phitsanulok District,"Pibulsongkram Rajabhat University, Thale Thip Road, Phlai Chumphon, Mueang Phitsanulok District, Phitsanulok 65000",2026-02-28 10:54:57
Nat iPhone12mini,iPhone 12 mini,87,NotCharging,16.83488,100.213659,7,Wifi,,,Mueang Phitsanulok District,"Pibulsongkram Rajabhat University, Thale Thip Road, Phlai Chumphon, Mueang Phitsanulok District, Phitsanulok 65000",2026-02-28 11:00:33
Nat iPhone12mini,iPhone 12 mini,87,NotCharging,16.834881,100.213658,7,Wifi,,,Mueang Phitsanulok District,"Pibulsongkram Rajabhat University, Thale Thip Road, Phlai Chumphon, Mueang Phitsanulok District, Phitsanulok 65000",2026-02-28 11:05:09
Nat iPhone12mini,iPhone 12 mini,87,NotCharging,16.834881,100.213658,5,Wifi,,,Mueang Phitsanulok District,"Pibulsongkram Rajabhat University, Thale Thip Road, Phlai Chumphon, Mueang Phitsanulok District, Phitsanulok 65000",2026-02-28 11:10:32
Nat iPhone12mini,iPhone 12 mini,86,NotCharging,16.834882,100.213658,10,Wifi,,,Mueang Phitsanulok District,"Pibulsongkram Rajabhat University, Thale Thip Road, Phlai Chumphon, Mueang Phitsanulok District, Phitsanulok 65000",2026-02-28 11:15:16
Nat iPhone12mini,iPhone 12 mini,86,NotCharging,16.834881,100.213658,5,Wifi,,,Mueang Phitsanulok District,"Pibulsongkram Rajabhat University, Thale Thip Road, Phlai Chumphon, Mueang Phitsanulok District, Phitsanulok 65000",2026-02-28 11:20:32
Nat iPhone12mini,iPhone 12 mini,85,NotCharging,16.834881,100.213658,13,Wifi,,,Mueang Phitsanulok District,"Pibulsongkram Rajabhat University, Thale Thip Road, Phlai Chumphon, Mueang Phitsanulok District, Phitsanulok 65000",2026-02-28 11:25:32
Nat iPhone12mini,iPhone 12 mini,85,NotCharging,16.834878,100.213661,8,Wifi,,,Mueang Phitsanulok District,"Pibulsongkram Rajabhat University, Thale Thip Road, Phlai Chumphon, Mueang Phitsanulok District, Phitsanulok 65000",2026-02-28 11:30:46
Nat iPhone12mini,iPhone 12 mini,84,NotCharging,16.834881,100.213658,9,Wifi,,,Mueang Phitsanulok District,"Pibulsongkram Rajabhat University, Thale Thip Road, Phlai Chumphon, Mueang Phitsanulok District, Phitsanulok 65000",2026-02-28 11:35:55
Nat iPhone12mini,iPhone 12 mini,84,NotCharging,16.834881,100.213658,10,Wifi,,,Mueang Phitsanulok District,"Pibulsongkram Rajabhat University, Thale Thip Road, Phlai Chumphon, Mueang Phitsanulok District, Phitsanulok 65000",2026-02-28 11:40:56
Nat iPhone12mini,iPhone 12 mini,83,NotCharging,16.834887,100.213713,9,GPS,,,Mueang Phitsanulok District,"Pibulsongkram Rajabhat University, Thale Thip Road, Phlai Chumphon, Mueang Phitsanulok District, Phitsanulok 65000",2026-02-28 11:46:01
Nat iPhone12mini,iPhone 12 mini,83,NotCharging,16.834883,100.213671,5,Wifi,,,Mueang Phitsanulok District,"Pibulsongkram Rajabhat University, Thale Thip Road, Phlai Chumphon, Mueang Phitsanulok District, Phitsanulok 65000",2026-02-28 11:50:54
Nat iPhone12mini,iPhone 12 mini,82,NotCharging,16.834892,100.213663,9,Wifi,,,Mueang Phitsanulok District,"Pibulsongkram Rajabhat University, Thale Thip Road, Phlai Chumphon, Mueang Phitsanulok District, Phitsanulok 65000",2026-02-28 11:56:16
Nat iPhone12mini,iPhone 12 mini,82,NotCharging,16.834887,100.213658,8,Wifi,,,Mueang Phitsanulok District,"Pibulsongkram Rajabhat University, Thale Thip Road, Phlai Chumphon, Mueang Phitsanulok District, Phitsanulok 65000",2026-02-28 12:01:10
Nat iPhone12mini,iPhone 12 mini,81,NotCharging,16.834882,100.213658,8,Wifi,,,Mueang Phitsanulok District,"Pibulsongkram Rajabhat University, Thale Thip Road, Phlai Chumphon, Mueang Phitsanulok District, Phitsanulok 65000",2026-02-28 12:06:14
Nat iPhone12mini,iPhone 12 mini,80,NotCharging,16.834723,100.213696,8,GPS,,,Mueang Phitsanulok District,"Pibulsongkram Rajabhat University, Thale Thip Road, Phlai Chumphon, Mueang Phitsanulok District, Phitsanulok 65000",2026-02-28 12:11:38
